[
  {
    "OBJECT_NAME": "STARLINK-1202",
    "OBJECT_ID": "20012F",
    "EPOCH": "2025-11-11T03:28:38.140032",
    "MEAN_MOTION": 15.06397592,
    "ECCENTRICITY": 0.0001426,
    "INCLINATION": 53.0538,
    "RA_OF_ASC_NODE": 218.7881,
    "ARG_OF_PERICENTER": 91.317,
    "MEAN_ANOMALY": 268.7983,
    "EPHEMERIS_TYPE": 0,
    "CLASSIFICATION_TYPE": "U",
    "NORAD_CAT_ID": 45183,
    "ELEMENT_SET_NO": 999,
    "REV_AT_EPOCH": 31697,
    "BSTAR": 0.00020469000000000002,
    "MEAN_MOTION_DOT": 2.769e-05,
    "MEAN_MOTION_DDOT": 0.0,
    "TLE_LINE1": "1 45183U 20012F   25315.14488588  .00002769  00000+0  20469-3 0  9995",
    "TLE_LINE2": "2 45183  53.0538 218.7881 0001426  91.3170 268.7983 15.06397592316972",
    "COMMENT": "Grouped by shell and plane from TLE"
  },
  {
    "OBJECT_NAME": "STARLINK-1216",
    "OBJECT_ID": "20012H",
    "EPOCH": "2025-11-11T00:06:56.572416",
    "MEAN_MOTION": 15.06396505,
    "ECCENTRICITY": 0.0001751,
    "INCLINATION": 53.0534,
    "RA_OF_ASC_NODE": 219.416,
    "ARG_OF_PERICENTER": 83.7502,
    "MEAN_ANOMALY": 276.3687,
    "EPHEMERIS_TYPE": 0,
    "CLASSIFICATION_TYPE": "U",
    "NORAD_CAT_ID": 45185,
    "ELEMENT_SET_NO": 999,
    "REV_AT_EPOCH": 31689,
    "BSTAR": 0.00025943,
    "MEAN_MOTION_DOT": 3.584e-05,
    "MEAN_MOTION_DDOT": 0.0,
    "TLE_LINE1": "1 45185U 20012H   25315.00482144  .00003584  00000+0  25943-3 0  9992",
    "TLE_LINE2": "2 45185  53.0534 219.4160 0001751  83.7502 276.3687 15.06396505316893",
    "COMMENT": "Grouped by shell and plane from TLE"
  },
  {
    "OBJECT_NAME": "STARLINK-1225",
    "OBJECT_ID": "20012K",
    "EPOCH": "2025-11-11T00:33:28.196928",
    "MEAN_MOTION": 15.06404316,
    "ECCENTRICITY": 0.000149,
    "INCLINATION": 53.053,
    "RA_OF_ASC_NODE": 219.3315,
    "ARG_OF_PERICENTER": 86.7888,
    "MEAN_ANOMALY": 273.3272,
    "EPHEMERIS_TYPE": 0,
    "CLASSIFICATION_TYPE": "U",
    "NORAD_CAT_ID": 45187,
    "ELEMENT_SET_NO": 999,
    "REV_AT_EPOCH": 31694,
    "BSTAR": 0.00049684,
    "MEAN_MOTION_DOT": 7.127e-05,
    "MEAN_MOTION_DDOT": 0.0,
    "TLE_LINE1": "1 45187U 20012K   25315.02324302  .00007127  00000+0  49684-3 0  9992",
    "TLE_LINE2": "2 45187  53.0530 219.3315 0001490  86.7888 273.3272 15.06404316316945",
    "COMMENT": "Grouped by shell and plane from TLE"
  },
  {
    "OBJECT_NAME": "STARLINK-1230",
    "OBJECT_ID": "20012M",
    "EPOCH": "2025-11-11T03:49:51.943008",
    "MEAN_MOTION": 15.06404552,
    "ECCENTRICITY": 0.0001424,
    "INCLINATION": 53.0542,
    "RA_OF_ASC_NODE": 218.7228,
    "ARG_OF_PERICENTER": 85.8697,
    "MEAN_ANOMALY": 274.2455,
    "EPHEMERIS_TYPE": 0,
    "CLASSIFICATION_TYPE": "U",
    "NORAD_CAT_ID": 45189,
    "ELEMENT_SET_NO": 999,
    "REV_AT_EPOCH": 31419,
    "BSTAR": 0.00033581,
    "MEAN_MOTION_DOT": 4.724e-05,
    "MEAN_MOTION_DDOT": 0.0,
    "TLE_LINE1": "1 45189U 20012M   25315.15962897  .00004724  00000+0  33581-3 0  9994",
    "TLE_LINE2": "2 45189  53.0542 218.7228 0001424  85.8697 274.2455 15.06404552314191",
    "COMMENT": "Grouped by shell and plane from TLE"
  },
  {
    "OBJECT_NAME": "STARLINK-1269",
    "OBJECT_ID": "20012V",
    "EPOCH": "2025-11-11T04:05:46.822848",
    "MEAN_MOTION": 15.06397966,
    "ECCENTRICITY": 0.0002012,
    "INCLINATION": 53.0539,
    "RA_OF_ASC_NODE": 218.6761,
    "ARG_OF_PERICENTER": 97.9494,
    "MEAN_ANOMALY": 262.1723,
    "EPHEMERIS_TYPE": 0,
    "CLASSIFICATION_TYPE": "U",
    "NORAD_CAT_ID": 45197,
    "ELEMENT_SET_NO": 999,
    "REV_AT_EPOCH": 31694,
    "BSTAR": 0.00024213000000000001,
    "MEAN_MOTION_DOT": 3.327e-05,
    "MEAN_MOTION_DDOT": 0.0,
    "TLE_LINE1": "1 45197U 20012V   25315.17068082  .00003327  00000+0  24213-3 0  9998",
    "TLE_LINE2": "2 45197  53.0539 218.6761 0002012  97.9494 262.1723 15.06397966316949",
    "COMMENT": "Grouped by shell and plane from TLE"
  },
  {
    "OBJECT_NAME": "STARLINK-1246",
    "OBJECT_ID": "20012BK",
    "EPOCH": "2025-11-11T03:33:56.596608",
    "MEAN_MOTION": 15.06392491,
    "ECCENTRICITY": 0.0001674,
    "INCLINATION": 53.0531,
    "RA_OF_ASC_NODE": 218.7716,
    "ARG_OF_PERICENTER": 79.7026,
    "MEAN_ANOMALY": 280.4151,
    "EPHEMERIS_TYPE": 0,
    "CLASSIFICATION_TYPE": "U",
    "NORAD_CAT_ID": 45235,
    "ELEMENT_SET_NO": 999,
    "REV_AT_EPOCH": 31699,
    "BSTAR": 0.00016596,
    "MEAN_MOTION_DOT": 2.191e-05,
    "MEAN_MOTION_DDOT": 0.0,
    "TLE_LINE1": "1 45235U 20012BK  25315.14857172  .00002191  00000+0  16596-3 0  9997",
    "TLE_LINE2": "2 45235  53.0531 218.7716 0001674  79.7026 280.4151 15.06392491316998",
    "COMMENT": "Grouped by shell and plane from TLE"
  },
  {
    "OBJECT_NAME": "STARLINK-2110",
    "OBJECT_ID": "21005AS",
    "EPOCH": "2025-11-11T03:46:29.845632",
    "MEAN_MOTION": 15.063905,
    "ECCENTRICITY": 0.0001371,
    "INCLINATION": 53.0528,
    "RA_OF_ASC_NODE": 213.7202,
    "ARG_OF_PERICENTER": 78.5071,
    "MEAN_ANOMALY": 281.6072,
    "EPHEMERIS_TYPE": 0,
    "CLASSIFICATION_TYPE": "U",
    "NORAD_CAT_ID": 47389,
    "ELEMENT_SET_NO": 999,
    "REV_AT_EPOCH": 26545,
    "BSTAR": 0.0,
    "MEAN_MOTION_DOT": -2.583e-05,
    "MEAN_MOTION_DDOT": 0.0,
    "TLE_LINE1": "1 47389U 21005AS  25315.15728988 -.00002583  00000+0 -15459-3 0  9999",
    "TLE_LINE2": "2 47389  53.0528 213.7202 0001371  78.5071 281.6072 15.06390500265450",
    "COMMENT": "Grouped by shell and plane from TLE"
  },
  {
    "OBJECT_NAME": "STARLINK-2121",
    "OBJECT_ID": "21005BC",
    "EPOCH": "2025-11-11T03:00:07.838208",
    "MEAN_MOTION": 15.06390382,
    "ECCENTRICITY": 0.0001389,
    "INCLINATION": 53.054,
    "RA_OF_ASC_NODE": 214.1158,
    "ARG_OF_PERICENTER": 92.7424,
    "MEAN_ANOMALY": 267.3724,
    "EPHEMERIS_TYPE": 0,
    "CLASSIFICATION_TYPE": "U",
    "NORAD_CAT_ID": 47399,
    "ELEMENT_SET_NO": 999,
    "REV_AT_EPOCH": 26544,
    "BSTAR": 0.00016869,
    "MEAN_MOTION_DOT": 2.231e-05,
    "MEAN_MOTION_DDOT": 0.0,
    "TLE_LINE1": "1 47399U 21005BC  25315.12509072  .00002231  00000+0  16869-3 0  9992",
    "TLE_LINE2": "2 47399  53.0540 214.1158 0001389  92.7424 267.3724 15.06390382265441",
    "COMMENT": "Grouped by shell and plane from TLE"
  },
  {
    "OBJECT_NAME": "STARLINK-1995",
    "OBJECT_ID": "21009AU",
    "EPOCH": "2025-11-11T02:38:51.830304",
    "MEAN_MOTION": 15.06404163,
    "ECCENTRICITY": 0.000155,
    "INCLINATION": 53.0536,
    "RA_OF_ASC_NODE": 213.9399,
    "ARG_OF_PERICENTER": 89.507,
    "MEAN_ANOMALY": 270.6096,
    "EPHEMERIS_TYPE": 0,
    "CLASSIFICATION_TYPE": "U",
    "NORAD_CAT_ID": 47590,
    "ELEMENT_SET_NO": 999,
    "REV_AT_EPOCH": 26264,
    "BSTAR": 0.00025185,
    "MEAN_MOTION_DOT": 3.472e-05,
    "MEAN_MOTION_DDOT": 0.0,
    "TLE_LINE1": "1 47590U 21009AU  25315.11032211  .00003472  00000+0  25185-3 0  9993",
    "TLE_LINE2": "2 47590  53.0536 213.9399 0001550  89.5070 270.6096 15.06404163262645",
    "COMMENT": "Grouped by shell and plane from TLE"
  },
  {
    "OBJECT_NAME": "STARLINK-2001",
    "OBJECT_ID": "21009BA",
    "EPOCH": "2025-11-11T03:21:19.463040",
    "MEAN_MOTION": 15.06398804,
    "ECCENTRICITY": 0.0001228,
    "INCLINATION": 53.0522,
    "RA_OF_ASC_NODE": 213.8087,
    "ARG_OF_PERICENTER": 83.3331,
    "MEAN_ANOMALY": 276.7798,
    "EPHEMERIS_TYPE": 0,
    "CLASSIFICATION_TYPE": "U",
    "NORAD_CAT_ID": 47596,
    "ELEMENT_SET_NO": 999,
    "REV_AT_EPOCH": 26264,
    "BSTAR": 0.00088387,
    "MEAN_MOTION_DOT": 0.00012908,
    "MEAN_MOTION_DDOT": 0.0,
    "TLE_LINE1": "1 47596U 21009BA  25315.13980860  .00012908  00000+0  88387-3 0  9990",
    "TLE_LINE2": "2 47596  53.0522 213.8087 0001228  83.3331 276.7798 15.06398804262643",
    "COMMENT": "Grouped by shell and plane from TLE"
  },
  {
    "OBJECT_NAME": "STARLINK-2065",
    "OBJECT_ID": "21012BE",
    "EPOCH": "2025-11-11T08:00:03.000384",
    "MEAN_MOTION": 15.10335514,
    "ECCENTRICITY": 9.99e-05,
    "INCLINATION": 53.0695,
    "RA_OF_ASC_NODE": 212.9073,
    "ARG_OF_PERICENTER": 79.058,
    "MEAN_ANOMALY": 329.309,
    "EPHEMERIS_TYPE": 0,
    "CLASSIFICATION_TYPE": "U",
    "NORAD_CAT_ID": 47672,
    "ELEMENT_SET_NO": 999,
    "REV_AT_EPOCH": 575,
    "BSTAR": 0.069748,
    "MEAN_MOTION_DOT": 0.01250739,
    "MEAN_MOTION_DDOT": 0.0,
    "TLE_LINE1": "1 47672U 21012BE  25315.33336806  .01250739  00000+0  69748-1 0  9991",
    "TLE_LINE2": "2 47672  53.0695 212.9073 0000999  79.0580 329.3090 15.10335514  5757",
    "COMMENT": "Grouped by shell and plane from TLE"
  },
  {
    "OBJECT_NAME": "STARLINK-2567",
    "OBJECT_ID": "21036A",
    "EPOCH": "2025-11-11T02:40:52.015296",
    "MEAN_MOTION": 15.06387248,
    "ECCENTRICITY": 0.0001938,
    "INCLINATION": 53.0548,
    "RA_OF_ASC_NODE": 218.9372,
    "ARG_OF_PERICENTER": 87.6006,
    "MEAN_ANOMALY": 272.5205,
    "EPHEMERIS_TYPE": 0,
    "CLASSIFICATION_TYPE": "U",
    "NORAD_CAT_ID": 48276,
    "ELEMENT_SET_NO": 999,
    "REV_AT_EPOCH": 25093,
    "BSTAR": 6.026e-05,
    "MEAN_MOTION_DOT": 6.16e-06,
    "MEAN_MOTION_DDOT": 0.0,
    "TLE_LINE1": "1 48276U 21036A   25315.11171314  .00000616  00000+0  60260-4 0  9994",
    "TLE_LINE2": "2 48276  53.0548 218.9372 0001938  87.6006 272.5205 15.06387248250930",
    "COMMENT": "Grouped by shell and plane from TLE"
  },
  {
    "OBJECT_NAME": "STARLINK-3055",
    "OBJECT_ID": "21082H",
    "EPOCH": "2025-11-11T02:49:33.546432",
    "MEAN_MOTION": 14.97526113,
    "ECCENTRICITY": 0.0001995,
    "INCLINATION": 70.0026,
    "RA_OF_ASC_NODE": 213.8238,
    "ARG_OF_PERICENTER": 302.9471,
    "MEAN_ANOMALY": 57.1496,
    "EPHEMERIS_TYPE": 0,
    "CLASSIFICATION_TYPE": "U",
    "NORAD_CAT_ID": 49137,
    "ELEMENT_SET_NO": 999,
    "REV_AT_EPOCH": 22870,
    "BSTAR": 9.8127e-05,
    "MEAN_MOTION_DOT": 1.055e-05,
    "MEAN_MOTION_DDOT": 0.0,
    "TLE_LINE1": "1 49137U 21082H   25315.11774938  .00001055  00000+0  98127-4 0  9994",
    "TLE_LINE2": "2 49137  70.0026 213.8238 0001995 302.9471  57.1496 14.97526113228708",
    "COMMENT": "Grouped by shell and plane from TLE"
  }
]